CCSDS_OMM_VERS,COMMENT,CREATION_DATE,ORIGINATOR,OBJECT_NAME,OBJECT_ID,CENTER_NAME,REF_FRAME,TIME_SYSTEM,MEAN_ELEMENT_THEORY,EPOCH,MEAN_MOTION,ECCENTRICITY,INCLINATION,RA_OF_ASC_NODE,ARG_OF_PERICENTER,MEAN_ANOMALY,EPHEMERIS_TYPE,CLASSIFICATION_TYPE,NORAD_CAT_ID,ELEMENT_SET_NO,REV_AT_EPOCH,BSTAR,MEAN_MOTION_DOT,MEAN_MOTION_DDOT,SEMIMAJOR_AXIS,PERIOD,APOAPSIS,PERIAPSIS,OBJECT_TYPE,RCS_SIZE,COUNTRY_CODE,LAUNCH_DATE,SITE,DECAY_DATE,FILE,GP_ID,TLE_LINE0,TLE_LINE1,TLE_LINE2
2,GENERATED VIA SPACE-TRACK.ORG API,2023-02-04T09:46:12,18 SPCS,OBJECT K,2023-001K,EARTH,TEME,UTC,SGP4,2023-02-04T03:42:48.147552,15.12864191,0.0012422,97.4989,96.7299,113.6037,246.6499,0,U,55018,999,492,0.00057236,0.00010026,0,6905.607,95.184,536.05,518.894,UNKNOWN,MEDIUM,TBD,2023-01-03,AFETR,,3771303,224364199,0 OBJECT K,1 55018U 23001K   23035.15472393  .00010026  00000-0  57236-3 0  9997,2 55018  97.4989  96.7299 0012422 113.6037 246.6499 15.12864191  4924
2,GENERATED VIA SPACE-TRACK.ORG API,2023-02-05T03:00:28,18 SPCS,OBJECT K,2023-001K,EARTH,TEME,UTC,SGP4,2023-02-04T21:10:28.915968,15.12877472,0.0012434,97.4984,97.4452,111.4311,248.8248,0,U,55018,999,503,0.00051869,9.082e-05,0,6905.567,95.183,536.018,518.846,UNKNOWN,MEDIUM,TBD,2023-01-03,AFETR,,3772514,224444741,0 OBJECT K,1 55018U 23001K   23035.88227912  .00009082  00000-0  51869-3 0  9998,2 55018  97.4984  97.4452 0012434 111.4311 248.8248 15.12877472  5037
2,GENERATED VIA SPACE-TRACK.ORG API,2023-02-05T20:23:21,18 SPCS,OBJECT K,2023-001K,EARTH,TEME,UTC,SGP4,2023-02-05T03:31:27.239520,15.12883058,0.0012463,97.4983,97.7053,110.6482,249.6086,0,U,55018,999,507,0.00048592,8.505e-05,0,6905.55,95.183,536.021,518.809,UNKNOWN,MEDIUM,TBD,2023-01-03,AFETR,,3773728,224498653,0 OBJECT K,1 55018U 23001K   23036.14684305  .00008505  00000-0  48592-3 0  9999,2 55018  97.4983  97.7053 0012463 110.6482 249.6086 15.12883058  5078
2,GENERATED VIA SPACE-TRACK.ORG API,2023-02-06T02:24:51,18 SPCS,OBJECT K,2023-001K,EARTH,TEME,UTC,SGP4,2023-02-05T17:48:38.207232,15.12893678,0.0012402,97.498,98.2903,108.821,251.4367,0,U,55018,999,516,0.00049818,8.724e-05,0,6905.518,95.182,535.947,518.818,UNKNOWN,MEDIUM,TBD,2023-01-03,AFETR,,3774172,224561791,0 OBJECT K,1 55018U 23001K   23036.74210888  .00008724  00000-0  49818-3 0  9991,2 55018  97.4980  98.2903 0012402 108.8210 251.4367 15.12893678  5168
2,GENERATED VIA SPACE-TRACK.ORG API,2023-02-05T23:06:13,18 SPCS,OBJECT K,2023-001K,EARTH,TEME,UTC,SGP4,2023-02-05T17:48:38.207232,15.12893678,0.0012402,97.498,98.2903,108.821,251.4367,0,U,55018,999,516,0.00049818,8.724e-05,0,6905.518,95.182,535.947,518.818,UNKNOWN,MEDIUM,TBD,2023-01-03,AFETR,,3774044,224532454,0 OBJECT K,1 55018U 23001K   23036.74210888  .00008724  00000-0  49818-3 0  9991,2 55018  97.4980  98.2903 0012402 108.8210 251.4367 15.12893678  5168
2,GENERATED VIA SPACE-TRACK.ORG API,2023-02-06T17:27:22,18 SPCS,OBJECT K,2023-001K,EARTH,TEME,UTC,SGP4,2023-02-06T09:41:03.219936,15.12909335,0.0012382,97.4975,98.9404,106.8848,253.3742,0,U,55018,999,526,0.00060923,0.0001069,0,6905.47,95.181,535.885,518.785,UNKNOWN,MEDIUM,TBD,2023-01-03,AFETR,,3775254,224611118,0 OBJECT K,1 55018U 23001K   23037.40350949  .00010690  00000-0  60923-3 0  9993,2 55018  97.4975  98.9404 0012382 106.8848 253.3742 15.12909335  5264
2,GENERATED VIA SPACE-TRACK.ORG API,2023-02-07T02:58:22,18 SPCS,OBJECT K,2023-001K,EARTH,TEME,UTC,SGP4,2023-02-06T17:37:15.502080,15.12917885,0.0012331,97.4973,99.2654,105.9763,254.2827,0,U,55018,999,531,0.00069401,0.00012192,0,6905.444,95.18,535.824,518.794,UNKNOWN,MEDIUM,TBD,2023-01-03,AFETR,,3776034,224654197,0 OBJECT K,1 55018U 23001K   23037.73420720  .00012192  00000-0  69401-3 0  9993,2 55018  97.4973  99.2654 0012331 105.9763 254.2827 15.12917885  5312
2,GENERATED VIA SPACE-TRACK.ORG API,2023-02-07T18:10:04,18 SPCS,OBJECT K,2023-001K,EARTH,TEME,UTC,SGP4,2023-02-07T03:08:42.051264,15.12927811,0.0012307,97.4971,99.6555,104.7698,255.4897,0,U,55018,999,537,0.00072032,0.00012661,0,6905.414,95.18,535.777,518.78,UNKNOWN,MEDIUM,TBD,2023-01-03,AFETR,,3777208,224707945,0 OBJECT K,1 55018U 23001K   23038.13104226  .00012661  00000-0  72032-3 0  9993,2 55018  97.4971  99.6555 0012307 104.7698 255.4897 15.12927811  5377
2,GENERATED VIA SPACE-TRACK.ORG API,2023-02-07T07:56:13,18 SPCS,OBJECT K,2023-001K,EARTH,TEME,UTC,SGP4,2023-02-07T03:08:42.051264,15.12927811,0.0012307,97.4971,99.6555,104.7698,255.4897,0,U,55018,999,537,0.00072032,0.00012661,0,6905.414,95.18,535.777,518.78,UNKNOWN,MEDIUM,TBD,2023-01-03,AFETR,,3776471,224665398,0 OBJECT K,1 55018U 23001K   23038.13104226  .00012661  00000-0  72032-3 0  9993,2 55018  97.4971  99.6555 0012307 104.7698 255.4897 15.12927811  5377
2,GENERATED VIA SPACE-TRACK.ORG API,2023-02-08T03:38:06,18 SPCS,OBJECT K,2023-001K,EARTH,TEME,UTC,SGP4,2023-02-07T20:36:19.914048,15.12952529,0.0012254,97.4968,100.3704,102.4461,257.8142,0,U,55018,999,548,0.0008915,0.00015702,0,6905.339,95.178,535.665,518.742,UNKNOWN,MEDIUM,TBD,2023-01-03,AFETR,,3777976,224745639,0 OBJECT K,1 55018U 23001K   23038.85856382  .00015702  00000-0  89150-3 0  9997,2 55018  97.4968 100.3704 0012254 102.4461 257.8142 15.12952529  5488
2,GENERATED VIA SPACE-TRACK.ORG API,2023-02-08T21:13:41,18 SPCS,OBJECT K,2023-001K,EARTH,TEME,UTC,SGP4,2023-02-07T22:11:34.221696,15.12954641,0.0012262,97.4968,100.4354,102.239,258.0215,0,U,55018,999,549,0.00089799,0.00015818,0,6905.332,95.178,535.664,518.73,UNKNOWN,MEDIUM,TBD,2023-01-03,AFETR,,3780324,224825183,0 OBJECT K,1 55018U 23001K   23038.92470164  .00015818  00000-0  89799-3 0  9992,2 55018  97.4968 100.4354 0012262 102.2390 258.0215 15.12954641  5490
2,GENERATED VIA SPACE-TRACK.ORG API,2023-02-08T17:16:12,18 SPCS,OBJECT K,2023-001K,EARTH,TEME,UTC,SGP4,2023-02-07T22:11:34.221696,15.12954641,0.0012262,97.4968,100.4354,102.239,258.0215,0,U,55018,999,549,0.00089799,0.00015818,0,6905.332,95.178,535.664,518.73,UNKNOWN,MEDIUM,TBD,2023-01-03,AFETR,,3779076,224769162,0 OBJECT K,1 55018U 23001K   23038.92470164  .00015818  00000-0  89799-3 0  9992,2 55018  97.4968 100.4354 0012262 102.2390 258.0215 15.12954641  5490
2,GENERATED VIA SPACE-TRACK.ORG API,2023-02-09T03:01:13,18 SPCS,OBJECT K,2023-001K,EARTH,TEME,UTC,SGP4,2023-02-08T17:14:25.058976,15.12986619,0.0012271,97.4968,101.2156,99.7865,260.4753,0,U,55018,999,561,0.001049,0.00018512,0,6905.235,95.176,535.573,518.626,UNKNOWN,MEDIUM,TBD,2023-01-03,AFETR,,3780893,224861496,0 OBJECT K,1 55018U 23001K   23039.71834559  .00018512  00000-0  10490-2 0  9997,2 55018  97.4968 101.2156 0012271  99.7865 260.4753 15.12986619  5614
2,GENERATED VIA SPACE-TRACK.ORG API,2023-02-09T18:09:31,18 SPCS,OBJECT K,2023-001K,EARTH,TEME,UTC,SGP4,2023-02-09T02:45:49.964832,15.13002375,0.001225,97.4969,101.6057,98.468,261.794,0,U,55018,999,567,0.0010828,0.00019121,0,6905.187,95.175,535.511,518.593,UNKNOWN,MEDIUM,TBD,2023-01-03,AFETR,,3782313,224913430,0 OBJECT K,1 55018U 23001K   23040.11516163  .00019121  00000-0  10828-2 0  9993,2 55018  97.4969 101.6057 0012250  98.4680 261.7940 15.13002375  5674
2,GENERATED VIA SPACE-TRACK.ORG API,2023-02-09T09:06:12,18 SPCS,OBJECT K,2023-001K,EARTH,TEME,UTC,SGP4,2023-02-09T02:45:49.964832,15.13002375,0.001225,97.4969,101.6057,98.468,261.794,0,U,55018,999,567,0.0010828,0.00019121,0,6905.187,95.175,535.511,518.593,UNKNOWN,MEDIUM,TBD,2023-01-03,AFETR,,3781832,224882523,0 OBJECT K,1 55018U 23001K   23040.11516163  .00019121  00000-0  10828-2 0  9993,2 55018  97.4969 101.6057 0012250  98.4680 261.7940 15.13002375  5674
2,GENERATED VIA SPACE-TRACK.ORG API,2023-02-10T02:37:16,18 SPCS,OBJECT K,2023-001K,EARTH,TEME,UTC,SGP4,2023-02-09T21:48:38.699136,15.13034124,0.0012257,97.4968,102.3859,96.159,264.1038,0,U,55018,999,579,0.0011394,0.00020144,0,6905.09,95.173,535.419,518.492,UNKNOWN,MEDIUM,TBD,2023-01-03,AFETR,,3783241,224961629,0 OBJECT K,1 55018U 23001K   23040.90878124  .00020144  00000-0  11394-2 0  9994,2 55018  97.4968 102.3859 0012257  96.1590 264.1038 15.13034124  5798
2,GENERATED VIA SPACE-TRACK.ORG API,2023-02-10T23:06:13,18 SPCS,OBJECT K,2023-001K,EARTH,TEME,UTC,SGP4,2023-02-10T15:16:12.137376,15.13063321,0.001237,97.4967,103.101,93.8268,266.4378,0,U,55018,999,590,0.0011386,0.00020147,0,6905.001,95.171,535.408,518.325,UNKNOWN,MEDIUM,TBD,2023-01-03,AFETR,,3784990,225046645,0 OBJECT K,1 55018U 23001K   23041.63625159  .00020147  00000-0  11386-2 0  9997,2 55018  97.4967 103.1010 0012370  93.8268 266.4378 15.13063321  5903
2,GENERATED VIA SPACE-TRACK.ORG API,2023-02-11T03:26:03,18 SPCS,OBJECT K,2023-001K,EARTH,TEME,UTC,SGP4,2023-02-10T21:37:07.624416,15.13073693,0.0012381,97.4967,103.3611,93.0338,267.231,0,U,55018,999,594,0.0011353,0.00020094,0,6904.97,95.171,535.384,518.286,UNKNOWN,MEDIUM,TBD,2023-01-03,AFETR,,3785071,225074386,0 OBJECT K,1 55018U 23001K   23041.90078269  .00020094  00000-0  11353-2 0  9996,2 55018  97.4967 103.3611 0012381  93.0338 267.2310 15.13073693  5946
2,GENERATED VIA SPACE-TRACK.ORG API,2023-02-11T19:06:25,18 SPCS,OBJECT K,2023-001K,EARTH,TEME,UTC,SGP4,2023-02-11T03:58:02.917056,15.13086921,0.0012415,97.4966,103.6212,92.2496,268.0157,0,U,55018,999,598,0.0012115,0.0002146,0,6904.93,95.17,535.367,518.222,UNKNOWN,MEDIUM,TBD,2023-01-03,AFETR,,3786144,225123921,0 OBJECT K,1 55018U 23001K   23042.16531154  .00021460  00000-0  12115-2 0  9997,2 55018  97.4966 103.6212 0012415  92.2496 268.0157 15.13086921  5989
2,GENERATED VIA SPACE-TRACK.ORG API,2023-02-12T00:46:13,18 SPCS,OBJECT K,2023-001K,EARTH,TEME,UTC,SGP4,2023-02-11T21:25:34.146912,15.13115131,0.0012449,97.4966,104.3365,90.1015,270.1643,0,U,55018,999,609,0.0011164,0.00019781,0,6904.844,95.168,535.305,518.113,UNKNOWN,MEDIUM,TBD,2023-01-03,AFETR,,3786479,225159345,0 OBJECT K,1 55018U 23001K   23042.89275633  .00019781  00000-0  11164-2 0  9990,2 55018  97.4966 104.3365 0012449  90.1015 270.1643 15.13115131  6090
